0 METEOR 2-17 DEB
1 38281U 88005AJ  13282.65624236  .00001103  00000-0  90022-3 0   513
2 38281 082.5301 052.1988 0023800 145.6423 214.6294 13.88786466221037
0 METEOR 2-17 DEB
1 38281U 88005AJ  13283.66488841  .00001152  00000-0  94091-3 0   520
2 38281 082.5290 051.3861 0022634 144.3330 215.9474 13.88789530221176
0 METEOR 2-17 DEB
1 38281U 88005AJ  13293.60715521  .00001476  00000-0  12075-2 0   534
2 38281 082.5354 043.4220 0022874 118.3526 242.2372 13.88821848222554
